STARLINK-4363           
1 53220U 22084AH  26187.69083246  .00002924  00000+0  20629-3 0  9998
2 53220  97.2834 245.6433 0001861 119.6979 240.4434 15.05684401217737
STARLINK-4377           
1 53221U 22084AJ  26187.71854911  .00000037  00000+0  64578-5 0  9993
2 53221  97.2847 245.7423 0001156  90.4512 269.6848 15.05654857217226
STARLINK-4356           
1 53224U 22084AM  26187.62717420 -.00001309  00000+0 -86880-4 0  9993
2 53224  97.2843 245.5687 0001648 110.9952 249.1452 15.05645188217206
STARLINK-4358           
1 53225U 22084AN  26187.72820379 -.00001245  00000+0 -82420-4 0  9998
2 53225  97.2833 246.7833 0000940 135.4388 224.6915 15.05651936217290
STARLINK-4359           
1 53226U 22084AP  26188.47451302  .00000647  00000+0  48724-4 0  9990
2 53226  97.2825 246.3962 0001842 108.5981 251.5447 15.05644964217330
STARLINK-4366           
1 53227U 22084AQ  26188.10756962 -.00000257  00000+0 -13886-4 0  9991
2 53227  97.2820 247.1678 0001160 138.6406 221.4909 15.05659483217351
STARLINK-4365           
1 53228U 22084AR  26188.10070027 -.00001361  00000+0 -90490-4 0  9996
2 53228  97.2847 246.1328 0001637 117.2375 242.9020 15.05645310217287
STARLINK-4367           
1 53229U 22084AS  26187.71424283  .00001127  00000+0  82033-4 0  9992
2 53229  97.3241 246.8815 0001091  63.7215 296.4125 15.05665452217297
STARLINK-4364           
1 53230U 22084AT  26187.62575588 -.00000591  00000+0 -37077-4 0  9993
2 53230  97.2836 246.7647 0001795 106.2150 253.9276 15.05652601217288
STARLINK-4370           
1 53231U 22084AU  26188.36787982 -.00001316  00000+0 -87352-4 0  9996
2 53231  97.2842 247.4275 0002028 130.7175 229.4229 15.05645967217395
STARLINK-4371           
1 53232U 22084AV  26188.13944795 -.00001007  00000+0 -65929-4 0  9992
2 53232  97.2816 246.0667 0002580 132.1910 227.9537 15.05646051217281
STARLINK-4372           
1 53233U 22084AW  26188.06468775 -.00001922  00000+0 -12931-3 0  9994
2 53233  97.2821 246.0050 0002149 107.2236 252.9227 15.05649793217278
STARLINK-4368           
1 53234U 22084AX  26188.00003472  .00045643  00000+0  75439-3 0  9996
2 53234  97.6015 250.4677 0001072  87.7761 348.3868 15.52102020  5939
CSS (WENTIAN)           
1 53239U 22085A   26188.45886303  .00008899  00000+0  11943-3 0  9995
2 53239  41.4676 198.7215 0002931 276.4067  83.6437 15.58027856288233
STARLINK-4056           
1 53242U 22086A   26187.86954624 -.00001341  00000+0 -66177-4 0  9993
2 53242  53.1618  23.8783 0001135  93.2260 266.8862 15.08829778219303
STARLINK-4047           
1 53243U 22086B   26188.58335648  .00042854  00000+0  22449-2 0  9997
2 53243  53.1616  25.2103 0001922 105.4974  50.7318 15.15408450  5909
STARLINK-4125           
1 53244U 22086C   26188.58335648  .00043190  00000+0  18340-2 0  9997
2 53244  53.1624  25.3387 0002051  82.1345  67.5092 15.22678065  5893
STARLINK-4131           
1 53246U 22086E   26188.58335648  .00042039  00000+0  18667-2 0  9992
2 53246  53.1622  25.3275 0002090  82.5853  52.7864 15.21167030  5943
STARLINK-4061           
1 53247U 22086F   26187.68555889 -.00001893  00000+0 -10091-3 0  9993
2 53247  53.1610  24.9029 0001302  79.1711 280.9427 15.08833046219278
STARLINK-4135           
1 53248U 22086G   26187.74076348 -.00001490  00000+0 -75560-4 0  9995
2 53248  53.1608  24.5745 0001344  82.7392 277.3752 15.08825681219286
STARLINK-4128           
1 53249U 22086H   26188.49408489  .00003592  00000+0  13680-3 0  9991
2 53249  53.1599  14.2260 0001832  60.1490 299.9692 15.29348775219195
STARLINK-4059           
1 53250U 22086J   26188.58335648  .00027327  00000+0  11801-2 0  9993
2 53250  53.1586  15.2597 0001032  76.7643  10.4045 15.22330377  5847
STARLINK-4129           
1 53251U 22086K   26188.00003472  .00048632  00000+0  16876-2 0  9997
2 53251  53.1603  16.7073 0000990  69.1885  31.9588 15.29336310  5232
STARLINK-4132           
1 53252U 22086L   26188.51289150  .00115371  00000+0  38718-2 0  9997
2 53252  53.1622  14.3288 0003233 346.9007  13.1909 15.29992361219196
STARLINK-4133           
1 53253U 22086M   26188.58335648 -.00006492  00000+0 -21275-3 0  9995
2 53253  53.1605  14.1642 0001000  90.8030 279.5803 15.29368111  5892
STARLINK-4134           
1 53254U 22086N   26188.33647573 -.00000048  00000+0  15084-4 0  9994
2 53254  53.1616  16.8034 0001217  85.9668 274.1463 15.08831152219146
STARLINK-4142           
1 53255U 22086P   26187.85711657 -.00000120  00000+0  10580-4 0  9993
2 53255  53.1607  18.9439 0001430  83.7583 276.3571 15.08833315219055
STARLINK-4147           
1 53256U 22086Q   26187.72832608  .00000490  00000+0  48883-4 0  9996
2 53256  53.1608  19.5269 0001185  90.6785 269.4342 15.08818992219034
STARLINK-4144           
1 53257U 22086R   26188.50848597 -.00000780  00000+0 -30903-4 0  9996
2 53257  53.1620  16.0209 0001350  90.2362 269.8784 15.08828720219153
STARLINK-4127           
1 53258U 22086S   26188.51584171  .00002575  00000+0  17984-3 0  9998
2 53258  53.1605  15.9864 0001387  82.1191 277.9958 15.08832822219153
