OBJECT_NAME,OBJECT_ID,EPOCH,MEAN_MOTION,ECCENTRICITY,INCLINATION,RA_OF_ASC_NODE,ARG_OF_PERICENTER,MEAN_ANOMALY,EPHEMERIS_TYPE,CLASSIFICATION_TYPE,NORAD_CAT_ID,ELEMENT_SET_NO,REV_AT_EPOCH,BSTAR,MEAN_MOTION_DOT,MEAN_MOTION_DDOT
STARLINK-4363,2022-084AH,2026-07-06T16:34:47.924544,15.05684401,.0001861,97.2834,245.6433,119.6979,240.4434,0,U,53220,999,21773,.20628597E-3,.2924E-4,0
STARLINK-4377,2022-084AJ,2026-07-06T17:14:42.643104,15.05654857,.00011567,97.2847,245.7423,90.4512,269.6848,0,U,53221,999,21722,.6457759E-5,.37E-6,0
STARLINK-4356,2022-084AM,2026-07-06T15:03:07.850880,15.05645188,.00016483,97.2843,245.5687,110.9952,249.1452,0,U,53224,999,21720,-.86880338E-4,-.1309E-4,0
STARLINK-4358,2022-084AN,2026-07-06T17:28:36.807456,15.05651936,.00009403,97.2833,246.7833,135.4388,224.6915,0,U,53225,999,21729,-.82420227E-4,-.1245E-4,0
STARLINK-4359,2022-084AP,2026-07-07T11:23:17.924928,15.05644964,.0001842,97.2825,246.3962,108.5981,251.5447,0,U,53226,999,21733,.48724119E-4,.647E-5,0
STARLINK-4366,2022-084AQ,2026-07-07T02:34:54.015168,15.05659483,.00011605,97.2820,247.1678,138.6406,221.4909,0,U,53227,999,21735,-.1388596E-4,-.257E-5,0
STARLINK-4365,2022-084AR,2026-07-07T02:25:00.503328,15.05645310,.00016374,97.2847,246.1328,117.2375,242.9020,0,U,53228,999,21728,-.90490117E-4,-.1361E-4,0
STARLINK-4367,2022-084AS,2026-07-06T17:08:30.580512,15.05665452,.00010916,97.3241,246.8815,63.7215,296.4125,0,U,53229,999,21729,.82032903E-4,.1127E-4,0
STARLINK-4364,2022-084AT,2026-07-06T15:01:05.308032,15.05652601,.00017951,97.2836,246.7647,106.2150,253.9276,0,U,53230,999,21728,-.37077023E-4,-.591E-5,0
STARLINK-4370,2022-084AU,2026-07-07T08:49:44.816448,15.05645967,.00020282,97.2842,247.4275,130.7175,229.4229,0,U,53231,999,21739,-.8735162E-4,-.1316E-4,0
STARLINK-4371,2022-084AV,2026-07-07T03:20:48.302880,15.05646051,.00025804,97.2816,246.0667,132.1910,227.9537,0,U,53232,999,21728,-.65929255E-4,-.1007E-4,0
STARLINK-4372,2022-084AW,2026-07-07T01:33:09.021600,15.05649793,.00021497,97.2821,246.0050,107.2236,252.9227,0,U,53233,999,21727,-.12931449E-3,-.1922E-4,0
STARLINK-4368,2022-084AX,2026-07-07T00:00:02.999808,15.52102020,.00010727,97.6015,250.4677,87.7761,348.3868,0,U,53234,999,593,.75438636E-3,.45643E-3,0
CSS (WENTIAN),2022-085A,2026-07-07T11:00:45.765792,15.58027856,.00029311,41.4676,198.7215,276.4067,83.6437,0,U,53239,999,28823,.11943047E-3,.8899E-4,0
STARLINK-4056,2022-086A,2026-07-06T20:52:08.795136,15.08829778,.0001135,53.1618,23.8783,93.2260,266.8862,0,U,53242,999,21930,-.66176683E-4,-.1341E-4,0
STARLINK-4047,2022-086B,2026-07-07T14:00:01.999872,15.15408450,.00019221,53.1616,25.2103,105.4974,50.7318,0,U,53243,999,590,.2244885E-2,.42854E-3,0
STARLINK-4125,2022-086C,2026-07-07T14:00:01.999872,15.22678065,.00020517,53.1624,25.3387,82.1345,67.5092,0,U,53244,999,589,.18339811E-2,.4319E-3,0
STARLINK-4131,2022-086E,2026-07-07T14:00:01.999872,15.21167030,.000209,53.1622,25.3275,82.5853,52.7864,0,U,53246,999,594,.18667293E-2,.42039E-3,0
STARLINK-4061,2022-086F,2026-07-06T16:27:12.288096,15.08833046,.00013022,53.1610,24.9029,79.1711,280.9427,0,U,53247,999,21927,-.10090849E-3,-.1893E-4,0
STARLINK-4135,2022-086G,2026-07-06T17:46:41.964672,15.08825681,.00013445,53.1608,24.5745,82.7392,277.3752,0,U,53248,999,21928,-.75560238E-4,-.149E-4,0
STARLINK-4128,2022-086H,2026-07-07T11:51:28.934496,15.29348775,.00018327,53.1599,14.2260,60.1490,299.9692,0,U,53249,999,21919,.13679747E-3,.3592E-4,0
STARLINK-4059,2022-086J,2026-07-07T14:00:01.999872,15.22330377,.00010324,53.1586,15.2597,76.7643,10.4045,0,U,53250,999,584,.11800862E-2,.27327E-3,0
STARLINK-4129,2022-086K,2026-07-07T00:00:02.999808,15.29336310,.00009904,53.1603,16.7073,69.1885,31.9588,0,U,53251,999,523,.16876317E-2,.48632E-3,0
STARLINK-4132,2022-086L,2026-07-07T12:18:33.825600,15.29992361,.00032331,53.1622,14.3288,346.9007,13.1909,0,U,53252,999,21919,.3871841E-2,.115371E-2,0
STARLINK-4133,2022-086M,2026-07-07T14:00:01.999872,15.29368111,.00010006,53.1605,14.1642,90.8030,279.5803,0,U,53253,999,589,-.21275055E-3,-.6492E-4,0
STARLINK-4134,2022-086N,2026-07-07T08:04:31.503072,15.08831152,.00012177,53.1616,16.8034,85.9668,274.1463,0,U,53254,999,21914,.15083694E-4,-.48E-6,0
STARLINK-4142,2022-086P,2026-07-06T20:34:14.871648,15.08833315,.00014302,53.1607,18.9439,83.7583,276.3571,0,U,53255,999,21905,.10580277E-4,-.12E-5,0
STARLINK-4147,2022-086Q,2026-07-06T17:28:47.373312,15.08818992,.00011853,53.1608,19.5269,90.6785,269.4342,0,U,53256,999,21903,.48883224E-4,.49E-5,0
STARLINK-4144,2022-086R,2026-07-07T12:12:13.187808,15.08828720,.00013508,53.1620,16.0209,90.2362,269.8784,0,U,53257,999,21915,-.30903154E-4,-.78E-5,0
STARLINK-4127,2022-086S,2026-07-07T12:22:48.723744,15.08832822,.00013878,53.1605,15.9864,82.1191,277.9958,0,U,53258,999,21915,.17984291E-3,.2575E-4,0
